Q2623   18.86  0.15 K06C7 129.34240  159.95624   99.90418   27.54817  0.3329336  1.01093413   0.9832278    FO 141029    16   1   52 days 0.52         Find_Orb   0000 (262623)                    20070128
